start=new Date('2021-09-01T00:00:00.000Z').valueOf();
sats=[{"CENTER_NAME":"EARTH","OBJECT_ID":"2021-038AV","CLASSIFICATION_TYPE":"U","TIME_SYSTEM":"UTC","MEAN_MOTION_DDOT":"0.0000000000000","SEMIMAJOR_AXIS":"6925.377","MEAN_MOTION":"15.06390737","BSTAR":"-0.00044330000000","REV_AT_EPOCH":"360","SITE":"AFETR","NORAD_CAT_ID":"48396","RCS_SIZE":"LARGE","PERIOD":"95.593","GP_ID":"183843522","APOAPSIS":"548.737","ECCENTRICITY":"0.00021590","MEAN_ELEMENT_THEORY":"SGP4","ARG_OF_PERICENTER":"72.3053","REF_FRAME":"TEME","INCLINATION":"53.0519","MEAN_MOTION_DOT":"-0.00006877","MEAN_ANOMALY":"296.2972","FILE":"3106454","COUNTRY_CODE":"US","EPHEMERIS_TYPE":"0","RA_OF_ASC_NODE":"192.2112","LAUNCH_DATE":"2021-05-04","ELEMENT_SET_NO":"999","TLE_LINE1":"1 48396U 21038AV  21243.91668981 -.00006877  00000-0 -44330-3 0  9991","EPOCH":"2021-08-31T22:00:01.999584","PERIAPSIS":"545.747","TLE_LINE2":"2 48396  53.0519 192.2112 0002159  72.3053 296.2972 15.06390737  3607","OBJECT_NAME":"STARLINK-2575","OBJECT_TYPE":"PAYLOAD","DECAY_DATE":null},{"REV_AT_EPOCH":"365","SITE":"AFETR","RCS_SIZE":"LARGE","PERIOD":"95.593","NORAD_CAT_ID":"48397","SEMIMAJOR_AXIS":"6925.381","MEAN_MOTION":"15.06389356","TIME_SYSTEM":"UTC","MEAN_MOTION_DDOT":"0.0000000000000","BSTAR":"-0.00052534000000","CLASSIFICATION_TYPE":"U","CENTER_NAME":"EARTH","OBJECT_ID":"2021-038AW","OBJECT_NAME":"STARLINK-2590","OBJECT_TYPE":"PAYLOAD","DECAY_DATE":null,"EPOCH":"2021-08-31T22:00:01.999584","PERIAPSIS":"545.939","LAUNCH_DATE":"2021-05-04","ELEMENT_SET_NO":"999","TLE_LINE1":"1 48397U 21038AW  21243.91668981 -.00008096  00000-0 -52534-3 0  9992","TLE_LINE2":"2 48397  53.0539 192.2125 0001888  61.9842 326.6118 15.06389356  3652","FILE":"3106454","COUNTRY_CODE":"US","MEAN_MOTION_DOT":"-0.00008096","MEAN_ANOMALY":"326.6118","RA_OF_ASC_NODE":"192.2125","EPHEMERIS_TYPE":"0","APOAPSIS":"548.554","ECCENTRICITY":"0.00018880","GP_ID":"183843708","REF_FRAME":"TEME","INCLINATION":"53.0539","ARG_OF_PERICENTER":"61.9842","MEAN_ELEMENT_THEORY":"SGP4"},{"BSTAR":"-0.00054096000000","TIME_SYSTEM":"UTC","MEAN_MOTION_DDOT":"0.0000000000000","SEMIMAJOR_AXIS":"6925.322","MEAN_MOTION":"15.06408758","NORAD_CAT_ID":"48398","RCS_SIZE":"LARGE","PERIOD":"95.592","SITE":"AFETR","REV_AT_EPOCH":"365","CENTER_NAME":"EARTH","OBJECT_ID":"2021-038AX","CLASSIFICATION_TYPE":"U","TLE_LINE2":"2 48398  53.0531 192.2139 0002072  75.4379 333.2669 15.06408758  3654","ELEMENT_SET_NO":"999","LAUNCH_DATE":"2021-05-04","TLE_LINE1":"1 48398U 21038AX  21243.91668981 -.00008332  00000-0 -54096-3 0  9991","EPOCH":"2021-08-31T22:00:01.999584","PERIAPSIS":"545.752","OBJECT_TYPE":"PAYLOAD","DECAY_DATE":null,"OBJECT_NAME":"STARLINK-2588","ARG_OF_PERICENTER":"75.4379","MEAN_ELEMENT_THEORY":"SGP4","REF_FRAME":"TEME","INCLINATION":"53.0531","GP_ID":"183843109","APOAPSIS":"548.622","ECCENTRICITY":"0.00020720","EPHEMERIS_TYPE":"0","RA_OF_ASC_NODE":"192.2139","MEAN_MOTION_DOT":"-0.00008332","MEAN_ANOMALY":"333.2669","COUNTRY_CODE":"US","FILE":"3106454"},{"OBJECT_ID":"2021-038AY","CENTER_NAME":"EARTH","CLASSIFICATION_TYPE":"U","BSTAR":"-0.00056110000000","MEAN_MOTION":"15.06416623","SEMIMAJOR_AXIS":"6925.298","MEAN_MOTION_DDOT":"0.0000000000000","TIME_SYSTEM":"UTC","PERIOD":"95.591","RCS_SIZE":"LARGE","NORAD_CAT_ID":"48399","SITE":"AFETR","REV_AT_EPOCH":"365","INCLINATION":"53.0543","REF_FRAME":"TEME","ARG_OF_PERICENTER":"73.8597","MEAN_ELEMENT_THEORY":"SGP4","ECCENTRICITY":"0.00021830","APOAPSIS":"548.674","GP_ID":"183843615","RA_OF_ASC_NODE":"192.2145","EPHEMERIS_TYPE":"0","FILE":"3106454","COUNTRY_CODE":"US","MEAN_ANOMALY":"354.8219","MEAN_MOTION_DOT":"-0.00008634","TLE_LINE2":"2 48399  53.0543 192.2145 0002183  73.8597 354.8219 15.06416623  3652","PERIAPSIS":"545.651","EPOCH":"2021-08-31T22:00:01.999584","TLE_LINE1":"1 48399U 21038AY  21243.91668981 -.00008634  00000-0 -56110-3 0  9996","LAUNCH_DATE":"2021-05-04","ELEMENT_SET_NO":"999","DECAY_DATE":null,"OBJECT_TYPE":"PAYLOAD","OBJECT_NAME":"STARLINK-2587"},{"CLASSIFICATION_TYPE":"U","CENTER_NAME":"EARTH","OBJECT_ID":"2021-038AZ","NORAD_CAT_ID":"48400","PERIOD":"95.593","RCS_SIZE":"LARGE","REV_AT_EPOCH":"360","SITE":"AFETR","BSTAR":"0.00185480000000","TIME_SYSTEM":"UTC","MEAN_MOTION_DDOT":"0.0000000000000","SEMIMAJOR_AXIS":"6925.380","MEAN_MOTION":"15.06389612","EPHEMERIS_TYPE":"0","RA_OF_ASC_NODE":"192.2125","MEAN_ANOMALY":"31.9407","MEAN_MOTION_DOT":"0.00027446","COUNTRY_CODE":"US","FILE":"3106454","MEAN_ELEMENT_THEORY":"SGP4","ARG_OF_PERICENTER":"56.7046","REF_FRAME":"TEME","INCLINATION":"53.0530","GP_ID":"183843203","APOAPSIS":"548.523","ECCENTRICITY":"0.00018450","OBJECT_TYPE":"PAYLOAD","DECAY_DATE":null,"OBJECT_NAME":"STARLINK-2576","TLE_LINE2":"2 48400  53.0530 192.2125 0001845  56.7046  31.9407 15.06389612  3606","ELEMENT_SET_NO":"999","LAUNCH_DATE":"2021-05-04","TLE_LINE1":"1 48400U 21038AZ  21243.91668981  .00027446  00000-0  18548-2 0  9991","EPOCH":"2021-08-31T22:00:01.999584","PERIAPSIS":"545.968"},{"ECCENTRICITY":"0.00017730","APOAPSIS":"548.374","GP_ID":"183843388","INCLINATION":"53.0534","REF_FRAME":"TEME","MEAN_ELEMENT_THEORY":"SGP4","ARG_OF_PERICENTER":"74.0992","COUNTRY_CODE":"US","FILE":"3106454","MEAN_ANOMALY":"179.7451","MEAN_MOTION_DOT":"-0.00049901","RA_OF_ASC_NODE":"192.2199","EPHEMERIS_TYPE":"0","PERIAPSIS":"545.918","EPOCH":"2021-08-31T22:00:01.999584","TLE_LINE1":"1 48401U 21038BA  21243.91668981 -.00049901  00000-0 -33526-2 0  9997","ELEMENT_SET_NO":"999","LAUNCH_DATE":"2021-05-04","TLE_LINE2":"2 48401  53.0534 192.2199 0001773  74.0992 179.7451 15.06422102  3595","OBJECT_NAME":"STARLINK-2571","DECAY_DATE":null,"OBJECT_TYPE":"PAYLOAD","OBJECT_ID":"2021-038BA","CENTER_NAME":"EARTH","CLASSIFICATION_TYPE":"U","MEAN_MOTION":"15.06422102","SEMIMAJOR_AXIS":"6925.281","MEAN_MOTION_DDOT":"0.0000000000000","TIME_SYSTEM":"UTC","BSTAR":"-0.00335260000000","REV_AT_EPOCH":"359","SITE":"AFETR","PERIOD":"95.591","RCS_SIZE":"LARGE","NORAD_CAT_ID":"48401"},{"SEMIMAJOR_AXIS":"6925.363","MEAN_MOTION":"15.06395164","TIME_SYSTEM":"UTC","MEAN_MOTION_DDOT":"0.0000000000000","BSTAR":"-0.00051989000000","SITE":"AFETR","REV_AT_EPOCH":"360","PERIOD":"95.592","RCS_SIZE":"LARGE","NORAD_CAT_ID":"48402","CENTER_NAME":"EARTH","OBJECT_ID":"2021-038BB","CLASSIFICATION_TYPE":"U","EPOCH":"2021-08-31T22:00:01.999584","PERIAPSIS":"545.835","ELEMENT_SET_NO":"999","LAUNCH_DATE":"2021-05-04","TLE_LINE1":"1 48402U 21038BB  21243.91668981 -.00008016  00000-0 -51989-3 0  9994","TLE_LINE2":"2 48402  53.0543 192.2140 0002012  70.2896  38.3269 15.06395164  3606","OBJECT_NAME":"STARLINK-2560","OBJECT_TYPE":"PAYLOAD","DECAY_DATE":null,"APOAPSIS":"548.622","ECCENTRICITY":"0.00020120","GP_ID":"183843430","REF_FRAME":"TEME","INCLINATION":"53.0543","ARG_OF_PERICENTER":"70.2896","MEAN_ELEMENT_THEORY":"SGP4","FILE":"3106454","COUNTRY_CODE":"US","MEAN_MOTION_DOT":"-0.00008016","MEAN_ANOMALY":"38.3269","RA_OF_ASC_NODE":"192.2140","EPHEMERIS_TYPE":"0"},{"OBJECT_NAME":"STARLINK-2561","DECAY_DATE":null,"OBJECT_TYPE":"PAYLOAD","TLE_LINE1":"1 48403U 21038BC  21243.91668981 -.00007620  00000-0 -49320-3 0  9991","ELEMENT_SET_NO":"999","LAUNCH_DATE":"2021-05-04","PERIAPSIS":"545.857","EPOCH":"2021-08-31T22:00:01.999584","TLE_LINE2":"2 48403  53.0532 192.2125 0001971  65.6377  63.0034 15.06397394  3605","MEAN_MOTION_DOT":"-0.00007620","MEAN_ANOMALY":"63.0034","FILE":"3106454","COUNTRY_CODE":"US","EPHEMERIS_TYPE":"0","RA_OF_ASC_NODE":"192.2125","GP_ID":"183843296","ECCENTRICITY":"0.00019710","APOAPSIS":"548.587","MEAN_ELEMENT_THEORY":"SGP4","ARG_OF_PERICENTER":"65.6377","INCLINATION":"53.0532","REF_FRAME":"TEME","SITE":"AFETR","REV_AT_EPOCH":"360","NORAD_CAT_ID":"48403","PERIOD":"95.592","RCS_SIZE":"LARGE","MEAN_MOTION_DDOT":"0.0000000000000","TIME_SYSTEM":"UTC","MEAN_MOTION":"15.06397394","SEMIMAJOR_AXIS":"6925.357","BSTAR":"-0.00049320000000","CLASSIFICATION_TYPE":"U","OBJECT_ID":"2021-038BC","CENTER_NAME":"EARTH"},{"ELEMENT_SET_NO":"999","LAUNCH_DATE":"2021-05-04","TLE_LINE1":"1 48404U 21038BD  21243.91668981 -.00007392  00000-0 -47767-3 0  9991","EPOCH":"2021-08-31T22:00:01.999584","PERIAPSIS":"545.748","TLE_LINE2":"2 48404  53.0548 192.2141 0002054  71.1807  77.4975 15.06414178  3652","OBJECT_NAME":"STARLINK-2593","OBJECT_TYPE":"PAYLOAD","DECAY_DATE":null,"GP_ID":"183843523","APOAPSIS":"548.593","ECCENTRICITY":"0.00020540","ARG_OF_PERICENTER":"71.1807","MEAN_ELEMENT_THEORY":"SGP4","REF_FRAME":"TEME","INCLINATION":"53.0548","MEAN_ANOMALY":"77.4975","MEAN_MOTION_DOT":"-0.00007392","FILE":"3106454","COUNTRY_CODE":"US","EPHEMERIS_TYPE":"0","RA_OF_ASC_NODE":"192.2141","TIME_SYSTEM":"UTC","MEAN_MOTION_DDOT":"0.0000000000000","SEMIMAJOR_AXIS":"6925.305","MEAN_MOTION":"15.06414178","BSTAR":"-0.00047767000000","REV_AT_EPOCH":"365","SITE":"AFETR","NORAD_CAT_ID":"48404","PERIOD":"95.591","RCS_SIZE":"LARGE","CENTER_NAME":"EARTH","OBJECT_ID":"2021-038BD","CLASSIFICATION_TYPE":"U"},{"SITE":"AFETR","REV_AT_EPOCH":"359","RCS_SIZE":"LARGE","PERIOD":"95.592","NORAD_CAT_ID":"48405","SEMIMAJOR_AXIS":"6925.352","MEAN_MOTION":"15.06398738","TIME_SYSTEM":"UTC","MEAN_MOTION_DDOT":"0.0000000000000","BSTAR":"-0.00042170000000","CLASSIFICATION_TYPE":"U","CENTER_NAME":"EARTH","OBJECT_ID":"2021-038BE","OBJECT_NAME":"STARLINK-2570","OBJECT_TYPE":"PAYLOAD","DECAY_DATE":null,"EPOCH":"2021-08-31T22:00:01.999584","PERIAPSIS":"545.846","ELEMENT_SET_NO":"999","LAUNCH_DATE":"2021-05-04","TLE_LINE1":"1 48405U 21038BE  21243.91668981 -.00006557  00000-0 -42170-3 0  9997","TLE_LINE2":"2 48405  53.0547 192.2135 0001981  70.5038  98.1215 15.06398738  3595","FILE":"3106454","COUNTRY_CODE":"US","MEAN_MOTION_DOT":"-0.00006557","MEAN_ANOMALY":"98.1215","RA_OF_ASC_NODE":"192.2135","EPHEMERIS_TYPE":"0","APOAPSIS":"548.589","ECCENTRICITY":"0.00019810","GP_ID":"183843709","REF_FRAME":"TEME","INCLINATION":"53.0547","MEAN_ELEMENT_THEORY":"SGP4","ARG_OF_PERICENTER":"70.5038"}];
